ONEWEB-0361             
1 49287U 21090J   23231.12926261  .00000128  00000+0  28334-3 0  9995
2 49287  87.9221 120.1369 0001777  74.2084 285.9245 13.20775392 94760
ONEWEB-0362             
1 49288U 21090K   23231.17343682  .00000052  00000+0  97868-4 0  9996
2 49288  87.9285 150.5509 0002405  84.7222 275.4185 13.19728370 91488
ONEWEB-0363             
1 49289U 21090L   23231.14609754  .00000044  00000+0  76563-4 0  9999
2 49289  87.9217 120.1312 0001684  65.3114 294.8194 13.20772246 94775
ONEWEB-0364             
1 49290U 21090M   23231.18397212  .00000096  00000+0  20361-3 0  9999
2 49290  87.9226 120.1322 0001713  82.5243 277.6085 13.20773780 95903
ONEWEB-0365             
1 49291U 21090N   23230.34788127  .00000031  00000+0  45462-4 0  9995
2 49291  87.9289 150.7007 0002090  80.5811 279.5558 13.19724590 91354
ONEWEB-0366             
1 49292U 21090P   23231.13721726 -.00000513  00000+0 -14181-2 0  9995
2 49292  87.9041 135.3512 0001720  80.2346 279.8978 13.14501823 93145
ONEWEB-0367             
1 49293U 21090Q   23231.14397284 -.00000032  00000+0 -10986-3 0  9991
2 49293  87.9214 120.1268 0001643  84.4170 275.7151 13.20774471 94768
ONEWEB-0368             
1 49294U 21090R   23230.20756323  .00000050  00000+0  90329-4 0  9999
2 49294  87.9229 120.3270 0000888  83.7601 276.3633 13.20773483 95799
